[{"OBJECT_NAME":"STARLINK-32608","OBJECT_ID":"2024-222L","EPOCH":"2026-03-09T04:29:56.452416","MEAN_MOTION":15.27590701,"ECCENTRICITY":0.00012751,"INCLINATION":43.0006,"RA_OF_ASC_NODE":138.8927,"ARG_OF_PERICENTER":238.5627,"MEAN_ANOMALY":121.51,"EPHEMERIS_TYPE":0,"CLASSIFICATION_TYPE":"U","NORAD_CAT_ID":62124,"ELEMENT_SET_NO":999,"REV_AT_EPOCH":7266,"BSTAR":0.0012608186,"MEAN_MOTION_DOT":0.00034607,"MEAN_MOTION_DDOT":0},{"OBJECT_NAME":"COSMOS 2251 DEB","OBJECT_ID":"1993-036BTX","EPOCH":"2026-02-28T17:34:44.973408","MEAN_MOTION":15.25753352,"ECCENTRICITY":0.00216382,"INCLINATION":73.9681,"RA_OF_ASC_NODE":229.3494,"ARG_OF_PERICENTER":13.6287,"MEAN_ANOMALY":346.5492,"EPHEMERIS_TYPE":0,"CLASSIFICATION_TYPE":"U","NORAD_CAT_ID":38487,"ELEMENT_SET_NO":999,"REV_AT_EPOCH":67986,"BSTAR":0.0024802785,"MEAN_MOTION_DOT":0.00064261,"MEAN_MOTION_DDOT":0}]
